NORAD_CAT_ID,OBJECT_NAME,OBJECT_TYPE,EPOCH,MEAN_MOTION,ECCENTRICITY,INCLINATION,RA_OF_ASC_NODE,ARG_OF_PERICENTER,MEAN_ANOMALY,BSTAR,MEAN_MOTION_DOT,MEAN_MOTION_DDOT,TLE_LINE0,TLE_LINE1,TLE_LINE2,SEMIMAJOR_AXIS,PERIOD,APOGEE,PERIGEE,DECAYED
54163.0,STARLINK-5161,PAYLOAD,2023-02-23 02:21:29,15.08834508,0.0001539,53.2191,309.9216,83.3969,276.7198,-6.5343e-05,-1.328e-05,0.0,0 STARLINK-5161,1 54163U 22141G   23054.09825758 -.00001328  00000-0 -65343-4 0  9998,2 54163  53.2191 309.9216 0001539  83.3969 276.7198 15.08834508 18199,6917.897,95.438,540.827,538.698,0.0
54163.0,STARLINK-5161,PAYLOAD,2023-02-24 02:12:14,15.08861217,0.0001437,53.2184,305.4624,82.0162,278.0993,0.00015162,2.127e-05,0.0,0 STARLINK-5161,1 54163U 22141G   23055.09183223  .00002127  00000-0  15162-3 0  9992,2 54163  53.2184 305.4624 0001437  82.0162 278.0993 15.08861217 18345,6917.816,95.436,540.675,538.686,0.0
54163.0,STARLINK-5161,PAYLOAD,2023-02-24 16:30:44,15.08837309,0.0001005,53.2173,302.7874,88.9074,271.2033,2.7166e-05,1.45e-06,0.0,0 STARLINK-5161,1 54163U 22141G   23055.68801191  .00000145  00000-0  27166-4 0  9994,2 54163  53.2173 302.7874 0001005  88.9074 271.2033 15.08837309 18433,6917.889,95.438,540.449,539.058,0.0
54163.0,STARLINK-5161,PAYLOAD,2023-02-24 19:41:30,15.08838584,0.0001193,53.2173,302.194,79.4945,280.6181,3.4146e-05,2.56e-06,0.0,0 STARLINK-5161,1 54163U 22141G   23055.82049153  .00000256  00000-0  34146-4 0  9991,2 54163  53.2173 302.1940 0001193  79.4945 280.6181 15.08838584 18457,6917.885,95.438,540.575,538.924,0.0
54163.0,STARLINK-5161,PAYLOAD,2023-02-25 02:03:02,15.08842903,0.0001246,53.2166,301.0028,90.3952,269.7182,7.278e-05,8.71e-06,0.0,0 STARLINK-5161,1 54163U 22141G   23056.08544684  .00000871  00000-0  72780-4 0  9998,2 54163  53.2166 301.0028 0001246  90.3952 269.7182 15.08842903 18496,6917.872,95.437,540.598,538.875,0.0
54163.0,STARLINK-5161,PAYLOAD,2023-02-25 22:43:03,15.08846179,0.000137,53.2168,297.1352,90.8859,269.2291,-8.436e-05,-1.631e-05,0.0,0 STARLINK-5161,1 54163U 22141G   23056.94657087 -.00001631  00000-0 -84360-4 0  9999,2 54163  53.2168 297.1352 0001370  90.8859 269.2291 15.08846179 18622,6917.862,95.437,540.674,538.779,0.0
54163.0,STARLINK-5161,PAYLOAD,2023-02-26 01:53:49,15.08846365,0.0001356,53.2168,296.5403,91.2567,268.858,-7.4573e-05,-1.475e-05,0.0,0 STARLINK-5161,1 54163U 22141G   23057.07905005 -.00001475  00000-0 -74573-4 0  9991,2 54163  53.2168 296.5403 0001356  91.2567 268.8580 15.08846365 18642,6917.861,95.437,540.664,538.788,0.0
54163.0,STARLINK-5161,PAYLOAD,2023-02-26 16:12:17,15.0884373,0.000119,53.2161,293.8649,94.9632,265.1496,5.7163e-05,6.22e-06,0.0,0 STARLINK-5161,1 54163U 22141G   23057.67520699  .00000622  00000-0  57163-4 0  9996,2 54163  53.2161 293.8649 0001190  94.9632 265.1496 15.08843730 18735,6917.869,95.437,540.557,538.911,0.0
54163.0,STARLINK-5161,PAYLOAD,2023-02-26 22:33:49,15.0884953,0.000121,53.2166,292.6779,93.6912,266.4219,0.00013519,1.865e-05,0.0,0 STARLINK-5161,1 54163U 22141G   23057.94016028  .00001865  00000-0  13519-3 0  9998,2 54163  53.2166 292.6779 0001210  93.6912 266.4219 15.08849530 18776,6917.851,95.437,540.553,538.879,0.0
54163.0,STARLINK-5161,PAYLOAD,2023-02-27 01:44:35,15.0885346,0.0001224,53.2166,292.0821,96.7937,263.3195,0.00016183,2.29e-05,0.0,0 STARLINK-5161,1 54163U 22141G   23058.07263693  .00002290  00000-0  16183-3 0  9998,2 54163  53.2166 292.0821 0001224  96.7937 263.3195 15.08853460 18792,6917.839,95.437,540.551,538.858,0.0
54163.0,STARLINK-5161,PAYLOAD,2023-02-27 16:03:04,15.08845574,0.0001112,53.2157,289.4041,97.0189,263.0929,9.649e-05,1.248e-05,0.0,0 STARLINK-5161,1 54163U 22141G   23058.66880519  .00001248  00000-0  96490-4 0  9997,2 54163  53.2157 289.4041 0001112  97.0189 263.0929 15.08845574 18884,6917.863,95.437,540.498,538.959,0.0
54163.0,STARLINK-5161,PAYLOAD,2023-02-27 22:24:36,15.0885871,0.0001019,53.2165,288.2165,97.2846,262.8262,0.00021061,3.067e-05,0.0,0 STARLINK-5161,1 54163U 22141G   23058.93375292  .00003067  00000-0  21061-3 0  9996,2 54163  53.2165 288.2165 0001019  97.2846 262.8262 15.08858710 18923,6917.823,95.436,540.393,538.983,0.0
54163.0,STARLINK-5161,PAYLOAD,2023-02-27 23:59:59,15.08862362,0.0001184,53.2158,287.9177,99.0705,261.0421,0.00022877,3.357e-05,0.0,0 STARLINK-5161,1 54163U 22141G   23058.99998952  .00003357  00000-0  22877-3 0  9994,2 54163  53.2158 287.9177 0001184  99.0705 261.0421 15.08862362 18938,6917.812,95.436,540.496,538.858,0.0
54163.0,STARLINK-5161,PAYLOAD,2023-02-28 14:18:29,15.08819532,0.0001315,53.2154,285.2421,103.7392,256.3746,-0.00029688,-5.007e-05,0.0,0 STARLINK-5161,1 54163U 22141G   23059.59617697 -.00005007  00000-0 -29688-3 0  9998,2 54163  53.2154 285.2421 0001315 103.7392 256.3746 15.08819532 19027,6917.943,95.439,540.718,538.898,0.0
54163.0,STARLINK-5161,PAYLOAD,2023-02-28 19:04:39,15.08813992,0.0001317,53.2159,284.3465,112.9252,247.1879,-0.00043983,-7.276e-05,0.0,0 STARLINK-5161,1 54163U 22141G   23059.79490297 -.00007276  00000-0 -43983-3 0  9999,2 54163  53.2159 284.3465 0001317 112.9252 247.1879 15.08813992 19051,6917.96,95.439,540.736,538.914,0.0
54163.0,STARLINK-5161,PAYLOAD,2023-02-28 22:15:26,15.08809321,8.82e-05,53.2159,283.7552,97.5693,262.54,-0.00046048,-7.602e-05,0.0,0 STARLINK-5161,1 54163U 22141G   23059.92738771 -.00007602  00000-0 -46048-3 0  9994,2 54163  53.2159 283.7552 0000882  97.5693 262.5400 15.08809321 19078,6917.974,95.439,540.449,539.229,0.0
54163.0,STARLINK-5161,PAYLOAD,2023-03-01 04:36:58,15.08820346,0.0001049,53.2163,282.566,78.163,281.948,-0.00023648,-4.047e-05,0.0,0 STARLINK-5161,1 54163U 22141G   23060.19234662 -.00004047  00000-0 -23648-3 0  9996,2 54163  53.2163 282.5660 0001049  78.1630 281.9480 15.08820346 19110,6917.94,95.439,540.531,539.08,0.0
54163.0,STARLINK-5161,PAYLOAD,2023-03-01 18:55:26,15.08843937,0.000117,53.2157,279.8893,78.1449,281.9674,0.00010206,1.337e-05,0.0,0 STARLINK-5161,1 54163U 22141G   23060.78849906  .00001337  00000-0  10206-3 0  9997,2 54163  53.2157 279.8893 0001170  78.1449 281.9674 15.08843937 19209,6917.868,95.437,540.543,538.924,0.0
54163.0,STARLINK-5161,PAYLOAD,2023-03-01 20:30:49,15.08845588,0.0001165,53.216,279.5921,74.8552,285.2569,0.00014424,2.009e-05,0.0,0 STARLINK-5161,1 54163U 22141G   23060.85473882  .00002009  00000-0  14424-3 0  9994,2 54163  53.2160 279.5921 0001165  74.8552 285.2569 15.08845588 19219,6917.863,95.437,540.534,538.922,0.0
54163.0,STARLINK-5161,PAYLOAD,2023-03-02 18:46:13,15.08843765,0.0001004,53.2157,275.4288,66.5323,293.5774,0.00059189,9.146e-05,0.0,0 STARLINK-5161,1 54163U 22141G   23061.78210590  .00009146  00000-0  59189-3 0  9998,2 54163  53.2157 275.4288 0001004  66.5323 293.5774 15.08843765 19352,6917.869,95.437,540.428,539.039,0.0
54163.0,STARLINK-5161,PAYLOAD,2023-03-03 01:07:45,15.08863251,8.7e-05,53.2159,274.2391,73.4103,286.6985,0.00068419,0.00010625,0.0,0 STARLINK-5161,1 54163U 22141G   23062.04705714  .00010625  00000-0  68419-3 0  9995,2 54163  53.2159 274.2391 0000870  73.4103 286.6985 15.08863251 19392,6917.809,95.436,540.276,539.072,0.0
54163.0,STARLINK-5161,PAYLOAD,2023-03-03 13:50:50,15.08849415,8.61e-05,53.2157,271.8603,78.7654,281.3435,0.00014063,1.952e-05,0.0,0 STARLINK-5161,1 54163U 22141G   23062.57697861  .00001952  00000-0  14063-3 0  9995,2 54163  53.2157 271.8603 0000861  78.7654 281.3435 15.08849415 19475,6917.852,95.437,540.312,539.121,0.0
54163.0,STARLINK-5161,PAYLOAD,2023-03-03 21:47:46,15.08861469,0.0001048,53.2153,270.3741,75.3356,284.7753,0.00053263,8.204e-05,0.0,0 STARLINK-5161,1 54163U 22141G   23062.90817159  .00008204  00000-0  53263-3 0  9998,2 54163  53.2153 270.3741 0001048  75.3356 284.7753 15.08861469 19527,6917.815,95.436,540.405,538.955,0.0
54163.0,STARLINK-5161,PAYLOAD,2023-03-04 00:58:32,15.08867733,0.0001075,53.2151,269.779,75.6865,284.4246,0.0011157,0.00017526,0.0,0 STARLINK-5161,1 54163U 22141G   23063.04065058  .00017526  00000-0  11157-2 0  9999,2 54163  53.2151 269.7790 0001075  75.6865 284.4246 15.08867733 19545,6917.796,95.436,540.404,538.917,0.0
54163.0,STARLINK-5161,PAYLOAD,2023-03-04 20:03:10,15.08843159,0.0001003,53.2154,266.2109,79.6979,280.4126,0.0007343,0.00011419,0.0,0 STARLINK-5161,1 54163U 22141G   23063.83553750  .00011419  00000-0  73430-3 0  9995,2 54163  53.2154 266.2109 0001003  79.6979 280.4126 15.08843159 19667,6917.871,95.437,540.43,539.042,0.0
54163.0,STARLINK-5161,PAYLOAD,2023-03-04 23:13:56,15.08847729,9.85e-05,53.2155,265.6159,81.2688,278.8416,0.00079622,0.00012409,0.0,0 STARLINK-5161,1 54163U 22141G   23063.96801686  .00012409  00000-0  79622-3 0  9992,2 54163  53.2155 265.6159 0000985  81.2688 278.8416 15.08847729 19682,6917.857,95.437,540.403,539.04,0.0
54163.0,STARLINK-5161,PAYLOAD,2023-03-05 19:53:57,15.08850594,9.67e-05,53.2155,261.7503,91.0525,269.0578,0.0011962,0.00018806,0.0,0 STARLINK-5161,1 54163U 22141G   23064.82914005  .00018806  00000-0  11962-2 0  9997,2 54163  53.2155 261.7503 0000967  91.0525 269.0578 15.08850594 19811,6917.848,95.437,540.382,539.044,0.0
54163.0,STARLINK-5161,PAYLOAD,2023-03-06 11:47:48,15.08846847,0.0001076,53.2159,258.7782,98.9011,261.2103,0.00086782,0.00013553,0.0,0 STARLINK-5161,1 54163U 22141G   23065.49153898  .00013553  00000-0  86782-3 0  9993,2 54163  53.2159 258.7782 0001076  98.9011 261.2103 15.08846847 19913,6917.859,95.437,540.469,538.98,0.0
54163.0,STARLINK-5161,PAYLOAD,2023-03-06 19:44:44,15.08844221,0.000103,53.216,257.2909,94.6805,265.4305,0.00020757,3.018e-05,0.0,0 STARLINK-5161,1 54163U 22141G   23065.82273912  .00003018  00000-0  20757-3 0  9995,2 54163  53.2160 257.2909 0001030  94.6805 265.4305 15.08844221 19963,6917.867,95.437,540.445,539.02,0.0
54163.0,STARLINK-5161,PAYLOAD,2023-03-07 19:35:31,15.08850723,0.0001018,53.215,252.8296,99.7409,260.3698,0.00016743,2.379e-05,0.0,0 STARLINK-5161,1 54163U 22141G   23066.81633493  .00002379  00000-0  16743-3 0  9998,2 54163  53.2150 252.8296 0001018  99.7409 260.3698 15.08850723 20116,6917.848,95.437,540.417,539.008,0.0
